      2.10          N: GNSS NAV DATA                        RINEX VERSION / TYPE
fic2rin                                 09/06/2023 00:18:10 PGM / RUN BY / DATE
                                                            END OF HEADER
23 23  9  5 10  0  0.0  .642184168100D-04  .511590769747D-11  .000000000000D+00
     .163000000000D+03 -.238125000000D+02  .424589114412D-08  .469013562355D+00
    -.138767063618D-05  .358823325951D-02  .792928040028D-05  .515367827225D+04
     .208800000000D+06  .614672899246D-07  .151625543314D+01 -.745058059692D-08
     .975018458095D+00  .232500000000D+03 -.310204871395D+01 -.792604443728D-08
     .135005623526D-09  .100000000000D+01  .227800000000D+04  .000000000000D+00
     .240000000000D+01  .000000000000D+00 -.838190317154D-08  .419000000000D+03
     .201600000000D+06  .400000000000D+01
4  23  9  5 10 14 40.0  .146885402501D-03  .112549969344D-10  .000000000000D+00
     .300000000000D+01 -.255625000000D+02  .467912347570D-08 -.301468760721D+01
    -.139512121677D-05  .252704031300D-02  .644475221634D-05  .515362006950D+04
     .209680000000D+06 -.167638063431D-07  .262731670722D+01  .000000000000D+00
     .963530000035D+00  .256218750000D+03 -.303330852383D+01 -.804819238237D-08
    -.967897459671D-10  .100000000000D+01  .227800000000D+04  .000000000000D+00
     .240000000000D+01  .000000000000D+00 -.419095158577D-08  .259000000000D+03
     .202500000000D+06  .400000000000D+01
5  23  9  5 12  0  0.0 -.141539610922D-03 -.147792889038D-11  .000000000000D+00
     .150000000000D+02 -.272500000000D+02  .437839666351D-08 -.138215815191D+01
    -.136159360409D-05  .606781593524D-02  .887736678123D-05  .515372457504D+04
     .216000000000D+06  .596046447754D-07  .149862129719D+01  .162050127983D-06
     .967185816223D+00  .211187500000D+03  .122014989760D+01 -.789818613401D-08
     .287511976028D-09  .100000000000D+01  .227800000000D+04  .000000000000D+00
     .240000000000D+01  .000000000000D+00 -.111758708954D-07  .150000000000D+02
     .208800000000D+06  .400000000000D+01
3  23  9  5 12  0  0.0 -.151487533003D-03  .198951966013D-10  .000000000000D+00
     .500000000000D+02 -.158125000000D+02  .418053127877D-08  .117978881435D+01
    -.881031155586D-06  .513090030290D-02  .875815749168D-05  .515360504532D+04
     .216000000000D+06 -.124797224998D-06  .154652664313D+01  .242143869400D-07
     .980161934696D+00  .222125000000D+03  .110406391747D+01 -.787211361942D-08
     .238224208709D-09  .100000000000D+01  .227800000000D+04  .000000000000D+00
     .240000000000D+01  .000000000000D+00  .186264514923D-08  .500000000000D+02
     .208800000000D+06  .400000000000D+01
2  23  9  5 12  0  0.0 -.557498075068D-03  .432009983342D-11  .000000000000D+00
     .117000000000D+03 -.501875000000D+02  .444589947527D-08 -.120862473200D+01
    -.247545540333D-05  .160030819243D-01  .735186040401D-05  .515353899002D+04
     .216000000000D+06 -.372529029846D-06  .416002980491D+00  .119209289551D-06
     .967790210587D+00  .247312500000D+03 -.134658848231D+01 -.824070040111D-08
    -.714315468392D-11  .100000000000D+01  .227800000000D+04  .000000000000D+00
     .240000000000D+01  .000000000000D+00 -.176951289177D-07  .117000000000D+03
     .208800000000D+06  .400000000000D+01
1  23  9  5 12  0  0.0  .166292767972D-03 -.102318153949D-11  .000000000000D+00
     .940000000000D+02 -.641875000000D+02  .378230040514D-08  .238098950774D+01
    -.349991023540D-05  .128765013069D-01  .759586691856D-05  .515364012337D+04
     .216000000000D+06 -.428408384323D-07  .516779632643D+00 -.214204192162D-06
     .990467323591D+00  .248000000000D+03  .992521162559D+00 -.753531387607D-08
    -.325013538118D-10  .100000000000D+01  .227800000000D+04  .000000000000D+00
     .340000000000D+01  .630000000000D+02  .512227416039D-08  .940000000000D+02
     .208800000000D+06  .400000000000D+01
6  23  9  5 12  0  0.0  .555499456823D-03 -.625277607469D-11  .000000000000D+00
     .260000000000D+02 -.784687500000D+02  .392944939163D-08  .259844834790D+01
    -.390969216824D-05  .273692456540D-02  .787340104580D-05  .515373922157D+04
     .216000000000D+06  .122934579849D-06  .508445966198D+00  .108033418655D-06
     .989644603333D+00  .240812500000D+03 -.800402664601D+00 -.783175479545D-08
    -.925038531568D-10  .100000000000D+01  .227800000000D+04  .000000000000D+00
     .240000000000D+01  .000000000000D+00  .372529029846D-08  .260000000000D+02
     .208800000000D+06  .400000000000D+01
4  23  9  5 12  0  0.0  .146956648678D-03  .112549969344D-10  .000000000000D+00
     .400000000000D+01 -.215000000000D+02  .468733810359D-08 -.209269699195D+01
    -.113435089588D-05  .252660876140D-02  .643171370029D-05  .515362109566D+04
     .216000000000D+06 -.186264514923D-08  .262726567918D+01 -.260770320892D-07
     .963529357814D+00  .256218750000D+03 -.303344401930D+01 -.806890753096D-08
    -.828605943335D-10  .100000000000D+01  .227800000000D+04  .000000000000D+00
     .240000000000D+01  .000000000000D+00 -.419095158577D-08  .260000000000D+03
     .208800000000D+06  .400000000000D+01
27 23  9  5 12  0  0.0 -.343453139067D-04 -.636646291241D-11  .000000000000D+00
     .140000000000D+02  .154687500000D+02  .453447459335D-08 -.167791114760D+01
     .718981027603D-06  .115866228007D-01  .326149165630D-05  .515367072105D+04
     .216000000000D+06  .176951289177D-06 -.553526962997D+00 -.819563865662D-07
     .966153767017D+00  .314281250000D+03  .742739065515D+00 -.816784022333D-08
     .137505727665D-09  .100000000000D+01  .227800000000D+04  .000000000000D+00
     .240000000000D+01  .000000000000D+00  .139698386192D-08  .140000000000D+02
     .208800000000D+06  .400000000000D+01
30 23  9  5 12  0  0.0 -.490474049002D-03  .329691829393D-11  .000000000000D+00
     .100000000000D+02  .765625000000D+01  .493877714846D-08  .160619376851D+01
     .439584255219D-06  .659105938394D-02  .984407961369D-05  .515377008057D+04
     .216000000000D+06 -.763684511185D-07 -.263727001709D+01  .316649675369D-07
     .935745509396D+00  .179437500000D+03 -.254668582680D+01 -.815212528303D-08
    -.392159192147D-09  .100000000000D+01  .227800000000D+04  .000000000000D+00
     .240000000000D+01  .000000000000D+00  .372529029846D-08  .100000000000D+02
     .208800000000D+06  .400000000000D+01
20 23  9  5 12  0  0.0  .413473229855D-03 -.193267624127D-11  .000000000000D+00
     .230000000000D+02 -.369687500000D+02  .474448334106D-08 -.304047491185D+01
    -.197626650333D-05  .406759348698D-02  .923313200474D-05  .515361427116D+04
     .216000000000D+06 -.109896063805D-06  .137436983060D+01 -.186264514923D-07
     .949729917823D+00  .192218750000D+03 -.285949188152D+01 -.804854954011D-08
     .242152943785D-09  .100000000000D+01  .227800000000D+04  .000000000000D+00
     .240000000000D+01  .000000000000D+00 -.838190317154D-08  .230000000000D+02
     .208800000000D+06  .400000000000D+01
12 23  9  5 12  0  0.0 -.421230215579D-03 -.443378667114D-11  .000000000000D+00
     .770000000000D+02  .103843750000D+03  .435803867266D-08  .105335226456D+01
     .525079667568D-05  .856359815225D-02  .783801078796D-05  .515379603004D+04
     .216000000000D+06 -.119209289551D-06 -.152666454293D+01 -.502914190292D-07
     .964195477080D+00  .227843750000D+03  .139162778741D+01 -.818069790176D-08
     .118576367753D-09  .100000000000D+01  .227800000000D+04  .000000000000D+00
     .240000000000D+01  .000000000000D+00 -.125728547573D-07  .770000000000D+02
     .208800000000D+06  .400000000000D+01
10 23  9  5 12  0  0.0 -.521512702107D-04 -.147792889038D-11  .000000000000D+00
     .870000000000D+02 -.284687500000D+02  .425410577201D-08  .292997996177D+00
    -.139884650707D-05  .874369975645D-02  .790879130363D-05  .515368760300D+04
     .216000000000D+06  .242143869400D-07  .154390940223D+01  .484287738800D-07
     .979876885108D+00  .235500000000D+03 -.244487284786D+01 -.799819029959D-08
     .148934775160D-09  .100000000000D+01  .227800000000D+04  .000000000000D+00
     .240000000000D+01  .000000000000D+00  .232830643654D-08  .870000000000D+02
     .208800000000D+06  .400000000000D+01
8  23  9  5 12  0  0.0 -.140722375363D-03 -.193267624127D-11  .000000000000D+00
     .530000000000D+02  .181250000000D+02  .475019786481D-08 -.174342899147D+01
     .638887286186D-06  .858439342119D-02  .349432229996D-05  .515374750137D+04
     .216000000000D+06  .689178705215D-07 -.577719558190D+00 -.108033418655D-06
     .957208360896D+00  .308718750000D+03  .270826453032D+00 -.833534720067D-08
     .131076888450D-09  .100000000000D+01  .227800000000D+04  .000000000000D+00
     .240000000000D+01  .000000000000D+00  .512227416039D-08  .530000000000D+02
     .208800000000D+06  .400000000000D+01
9  23  9  5 12  0  0.0 -.679553486407D-04  .101181285572D-10  .000000000000D+00
     .320000000000D+02 -.217500000000D+02  .491734768441D-08 -.118982971936D+01
    -.116042792797D-05  .269228836987D-02  .617094337940D-05  .515354333115D+04
     .216000000000D+06 -.540167093277D-07  .256978842806D+01  .149011611938D-07
     .956861661015D+00  .257125000000D+03  .194100167812D+01 -.822819988041D-08
    -.842892252703D-10  .100000000000D+01  .227800000000D+04  .000000000000D+00
     .240000000000D+01  .000000000000D+00  .931322574615D-09  .320000000000D+02
     .208800000000D+06  .400000000000D+01
7  23  9  5 12  0  0.0  .757877714932D-04 -.105728759081D-10  .000000000000D+00
     .970000000000D+02  .125000000000D+01  .460447750926D-08  .169164897826D+01
    -.115483999252D-06  .175511772977D-01  .101067125797D-04  .515372635460D+04
     .216000000000D+06 -.350177288055D-06 -.264185020293D+01 -.173225998878D-06
     .950618633242D+00  .184062500000D+03 -.217435018879D+01 -.804140638542D-08
    -.350371737246D-09  .100000000000D+01  .227800000000D+04  .000000000000D+00
     .240000000000D+01  .000000000000D+00 -.111758708954D-07  .970000000000D+02
     .208800000000D+06  .400000000000D+01
